start=new Date('2021-11-06T00:00:00.000Z').valueOf();
sats=[{"RCS_SIZE":"LARGE","FILE":"3204412","MEAN_ANOMALY":"287.3001","BSTAR":"0.00014014000000","CLASSIFICATION_TYPE":"U","PERIAPSIS":"545.933","TIME_SYSTEM":"UTC","OBJECT_ID":"2020-006G","SITE":"AFETR","COUNTRY_CODE":"US","OBJECT_NAME":"STARLINK-1140","CENTER_NAME":"EARTH","LAUNCH_DATE":"2020-01-29","GP_ID":"189043583","TLE_LINE1":"1 45050U 20006G   21309.83397151  .00001807  00000-0  14014-3 0  9993","APOAPSIS":"548.456","SEMIMAJOR_AXIS":"6925.329","DECAY_DATE":null,"INCLINATION":"53.0525","MEAN_ELEMENT_THEORY":"SGP4","REV_AT_EPOCH":"9758","NORAD_CAT_ID":"45050","MEAN_MOTION":"15.06406245","RA_OF_ASC_NODE":"201.3224","ARG_OF_PERICENTER":"72.8187","PERIOD":"95.592","ECCENTRICITY":"0.00018220","EPOCH":"2021-11-05T20:00:55.138464","TLE_LINE2":"2 45050  53.0525 201.3224 0001822  72.8187 287.3001 15.06406245 97589","OBJECT_TYPE":"PAYLOAD","ELEMENT_SET_NO":"999","EPHEMERIS_TYPE":"0","MEAN_MOTION_DOT":"0.00001807","REF_FRAME":"TEME","MEAN_MOTION_DDOT":"0.0000000000000"},{"SEMIMAJOR_AXIS":"6924.231","TLE_LINE1":"1 45051U 20006H   21309.42919573  .00008954  00000-0  61325-3 0  9994","APOAPSIS":"547.298","DECAY_DATE":null,"CENTER_NAME":"EARTH","OBJECT_NAME":"STARLINK-1141","GP_ID":"189011254","LAUNCH_DATE":"2020-01-29","OBJECT_ID":"2020-006H","TIME_SYSTEM":"UTC","PERIAPSIS":"544.895","COUNTRY_CODE":"US","SITE":"AFETR","MEAN_ANOMALY":"273.6878","RCS_SIZE":"LARGE","FILE":"3203969","CLASSIFICATION_TYPE":"U","BSTAR":"0.00061325000000","ELEMENT_SET_NO":"999","REF_FRAME":"TEME","MEAN_MOTION_DDOT":"0.0000000000000","EPHEMERIS_TYPE":"0","MEAN_MOTION_DOT":"0.00008954","OBJECT_TYPE":"PAYLOAD","TLE_LINE2":"2 45051  53.0522 203.0959 0001735  86.4310 273.6878 15.06764660 97525","EPOCH":"2021-11-05T10:18:02.511072","ECCENTRICITY":"0.00017350","ARG_OF_PERICENTER":"86.4310","PERIOD":"95.569","RA_OF_ASC_NODE":"203.0959","MEAN_MOTION":"15.06764660","MEAN_ELEMENT_THEORY":"SGP4","INCLINATION":"53.0522","NORAD_CAT_ID":"45051","REV_AT_EPOCH":"9752"},{"CLASSIFICATION_TYPE":"U","BSTAR":"0.00000102340000","FILE":"3204412","RCS_SIZE":"LARGE","MEAN_ANOMALY":"299.6464","SITE":"AFETR","COUNTRY_CODE":"US","OBJECT_ID":"2020-006J","TIME_SYSTEM":"UTC","PERIAPSIS":"546.074","GP_ID":"189044570","LAUNCH_DATE":"2020-01-29","CENTER_NAME":"EARTH","OBJECT_NAME":"STARLINK-1148","DECAY_DATE":null,"TLE_LINE1":"1 45052U 20006J   21309.90770391 -.00000266  00000-0  10234-5 0  9995","APOAPSIS":"548.389","SEMIMAJOR_AXIS":"6925.367","NORAD_CAT_ID":"45052","REV_AT_EPOCH":"9759","INCLINATION":"53.0543","MEAN_ELEMENT_THEORY":"SGP4","ARG_OF_PERICENTER":"60.4692","PERIOD":"95.593","RA_OF_ASC_NODE":"200.9918","MEAN_MOTION":"15.06394137","OBJECT_TYPE":"PAYLOAD","TLE_LINE2":"2 45052  53.0543 200.9918 0001672  60.4692 299.6464 15.06394137 97599","ECCENTRICITY":"0.00016720","EPOCH":"2021-11-05T21:47:05.617824","MEAN_MOTION_DDOT":"0.0000000000000","REF_FRAME":"TEME","EPHEMERIS_TYPE":"0","MEAN_MOTION_DOT":"-0.00000266","ELEMENT_SET_NO":"999"},{"REV_AT_EPOCH":"9759","NORAD_CAT_ID":"45053","MEAN_ELEMENT_THEORY":"SGP4","INCLINATION":"53.0001","RA_OF_ASC_NODE":"199.4369","MEAN_MOTION":"15.07578094","ARG_OF_PERICENTER":"84.9729","PERIOD":"95.517","EPOCH":"2021-11-05T20:37:36.270048","ECCENTRICITY":"0.00014590","OBJECT_TYPE":"PAYLOAD","TLE_LINE2":"2 45053  53.0001 199.4369 0001459  84.9729 275.1426 15.07578094 97590","EPHEMERIS_TYPE":"0","MEAN_MOTION_DOT":"0.00009697","REF_FRAME":"TEME","MEAN_MOTION_DDOT":"0.0000000000000","ELEMENT_SET_NO":"999","BSTAR":"0.00064817000000","CLASSIFICATION_TYPE":"U","MEAN_ANOMALY":"275.1426","RCS_SIZE":"LARGE","FILE":"3204412","SITE":"AFETR","COUNTRY_CODE":"US","PERIAPSIS":"542.595","TIME_SYSTEM":"UTC","OBJECT_ID":"2020-006K","LAUNCH_DATE":"2020-01-29","GP_ID":"189043841","OBJECT_NAME":"STARLINK-1155","CENTER_NAME":"EARTH","DECAY_DATE":null,"SEMIMAJOR_AXIS":"6921.740","TLE_LINE1":"1 45053U 20006K   21309.85944757  .00009697  00000-0  64817-3 0  9999","APOAPSIS":"544.615"},{"OBJECT_NAME":"STARLINK-1156","CENTER_NAME":"EARTH","LAUNCH_DATE":"2020-01-29","GP_ID":"189010005","APOAPSIS":"548.358","TLE_LINE1":"1 45054U 20006L   21309.43958947  .00005174  00000-0  36590-3 0  9993","SEMIMAJOR_AXIS":"6925.331","DECAY_DATE":null,"FILE":"3203969","RCS_SIZE":"LARGE","MEAN_ANOMALY":"297.2353","BSTAR":"0.00036590000000","CLASSIFICATION_TYPE":"U","PERIAPSIS":"546.034","TIME_SYSTEM":"UTC","OBJECT_ID":"2020-006L","COUNTRY_CODE":"US","SITE":"AFETR","ECCENTRICITY":"0.00016780","EPOCH":"2021-11-05T10:33:00.530208","OBJECT_TYPE":"PAYLOAD","TLE_LINE2":"2 45054  53.0544 203.0865 0001678  62.8807 297.2353 15.06405813 97525","ELEMENT_SET_NO":"999","EPHEMERIS_TYPE":"0","MEAN_MOTION_DOT":"0.00005174","MEAN_MOTION_DDOT":"0.0000000000000","REF_FRAME":"TEME","INCLINATION":"53.0544","MEAN_ELEMENT_THEORY":"SGP4","REV_AT_EPOCH":"9752","NORAD_CAT_ID":"45054","MEAN_MOTION":"15.06405813","RA_OF_ASC_NODE":"203.0865","PERIOD":"95.592","ARG_OF_PERICENTER":"62.8807"},{"MEAN_ELEMENT_THEORY":"SGP4","INCLINATION":"53.0526","NORAD_CAT_ID":"45057","REV_AT_EPOCH":"9760","PERIOD":"95.591","ARG_OF_PERICENTER":"68.0425","RA_OF_ASC_NODE":"200.9295","MEAN_MOTION":"15.06425059","OBJECT_TYPE":"PAYLOAD","TLE_LINE2":"2 45057  53.0526 200.9295 0001497  68.0425 292.0722 15.06425059 97600","EPOCH":"2021-11-05T22:02:59.406432","ECCENTRICITY":"0.00014970","ELEMENT_SET_NO":"999","REF_FRAME":"TEME","MEAN_MOTION_DDOT":"0.0000000000000","EPHEMERIS_TYPE":"0","MEAN_MOTION_DOT":"0.00007803","MEAN_ANOMALY":"292.0722","RCS_SIZE":"LARGE","FILE":"3204412","CLASSIFICATION_TYPE":"U","BSTAR":"0.00054182000000","TIME_SYSTEM":"UTC","OBJECT_ID":"2020-006P","PERIAPSIS":"546.100","SITE":"AFETR","COUNTRY_CODE":"US","CENTER_NAME":"EARTH","OBJECT_NAME":"STARLINK-1159","GP_ID":"189044843","LAUNCH_DATE":"2020-01-29","SEMIMAJOR_AXIS":"6925.272","TLE_LINE1":"1 45057U 20006P   21309.91874313  .00007803  00000-0  54182-3 0  9991","APOAPSIS":"548.173","DECAY_DATE":null},{"SITE":"AFETR","COUNTRY_CODE":"US","TIME_SYSTEM":"UTC","OBJECT_ID":"2020-006Q","PERIAPSIS":"545.957","CLASSIFICATION_TYPE":"U","BSTAR":"0.00038548000000","MEAN_ANOMALY":"291.0954","RCS_SIZE":"LARGE","FILE":"3204412","DECAY_DATE":null,"SEMIMAJOR_AXIS":"6925.299","TLE_LINE1":"1 45058U 20006Q   21309.84501926  .00005467  00000-0  38548-3 0  9993","APOAPSIS":"548.371","GP_ID":"189045070","LAUNCH_DATE":"2020-01-29","CENTER_NAME":"EARTH","OBJECT_NAME":"STARLINK-1162","ARG_OF_PERICENTER":"69.0221","PERIOD":"95.591","RA_OF_ASC_NODE":"201.2740","MEAN_MOTION":"15.06416168","NORAD_CAT_ID":"45058","REV_AT_EPOCH":"9759","MEAN_ELEMENT_THEORY":"SGP4","INCLINATION":"53.0540","MEAN_MOTION_DDOT":"0.0000000000000","REF_FRAME":"TEME","MEAN_MOTION_DOT":"0.00005467","EPHEMERIS_TYPE":"0","ELEMENT_SET_NO":"999","TLE_LINE2":"2 45058  53.0540 201.2740 0001743  69.0221 291.0954 15.06416168 97590","OBJECT_TYPE":"PAYLOAD","EPOCH":"2021-11-05T20:16:49.664064","ECCENTRICITY":"0.00017430"},{"GP_ID":"189043342","LAUNCH_DATE":"2020-01-29","CENTER_NAME":"EARTH","OBJECT_NAME":"STARLINK-1165","DECAY_DATE":null,"TLE_LINE1":"1 45059U 20006R   21309.86712899  .00004168  00000-0  29825-3 0  9994","APOAPSIS":"548.436","SEMIMAJOR_AXIS":"6925.230","CLASSIFICATION_TYPE":"U","BSTAR":"0.00029825000000","FILE":"3204412","RCS_SIZE":"LARGE","MEAN_ANOMALY":"295.6665","SITE":"AFETR","COUNTRY_CODE":"US","TIME_SYSTEM":"UTC","OBJECT_ID":"2020-006R","PERIAPSIS":"545.753","TLE_LINE2":"2 45059  53.0536 201.1665 0001937  64.4524 295.6665 15.06438770 97593","OBJECT_TYPE":"PAYLOAD","ECCENTRICITY":"0.00019370","EPOCH":"2021-11-05T20:48:39.944736","REF_FRAME":"TEME","MEAN_MOTION_DDOT":"0.0000000000000","EPHEMERIS_TYPE":"0","MEAN_MOTION_DOT":"0.00004168","ELEMENT_SET_NO":"999","NORAD_CAT_ID":"45059","REV_AT_EPOCH":"9759","INCLINATION":"53.0536","MEAN_ELEMENT_THEORY":"SGP4","ARG_OF_PERICENTER":"64.4524","PERIOD":"95.590","RA_OF_ASC_NODE":"201.1665","MEAN_MOTION":"15.06438770"},{"RCS_SIZE":"LARGE","FILE":"3204412","MEAN_ANOMALY":"287.7276","CLASSIFICATION_TYPE":"U","BSTAR":"0.00052941000000","OBJECT_ID":"2020-006S","TIME_SYSTEM":"UTC","PERIAPSIS":"546.081","SITE":"AFETR","COUNTRY_CODE":"US","CENTER_NAME":"EARTH","OBJECT_NAME":"STARLINK-1166","GP_ID":"189043584","LAUNCH_DATE":"2020-01-29","TLE_LINE1":"1 45060U 20006S   21309.86345343  .00007621  00000-0  52941-3 0  9994","APOAPSIS":"548.119","SEMIMAJOR_AXIS":"6925.235","DECAY_DATE":null,"INCLINATION":"53.0531","MEAN_ELEMENT_THEORY":"SGP4","NORAD_CAT_ID":"45060","REV_AT_EPOCH":"9759","PERIOD":"95.590","ARG_OF_PERICENTER":"72.3874","MEAN_MOTION":"15.06436989","RA_OF_ASC_NODE":"201.1901","TLE_LINE2":"2 45060  53.0531 201.1901 0001471  72.3874 287.7276 15.06436989 97592","OBJECT_TYPE":"PAYLOAD","ECCENTRICITY":"0.00014710","EPOCH":"2021-11-05T20:43:22.376352","ELEMENT_SET_NO":"999","MEAN_MOTION_DDOT":"0.0000000000000","REF_FRAME":"TEME","MEAN_MOTION_DOT":"0.00007621","EPHEMERIS_TYPE":"0"},{"FILE":"3204412","RCS_SIZE":"LARGE","MEAN_ANOMALY":"289.4460","CLASSIFICATION_TYPE":"U","BSTAR":"0.00005191700000","OBJECT_ID":"2020-006T","TIME_SYSTEM":"UTC","PERIAPSIS":"546.165","COUNTRY_CODE":"US","SITE":"AFETR","CENTER_NAME":"EARTH","OBJECT_NAME":"STARLINK-1169","GP_ID":"189044344","LAUNCH_DATE":"2020-01-29","TLE_LINE1":"1 45061U 20006T   21309.87082177  .00000492  00000-0  51917-4 0  9991","APOAPSIS":"548.213","SEMIMAJOR_AXIS":"6925.324","DECAY_DATE":null,"INCLINATION":"53.0537","MEAN_ELEMENT_THEORY":"SGP4","NORAD_CAT_ID":"45061","REV_AT_EPOCH":"9759","ARG_OF_PERICENTER":"70.6688","PERIOD":"95.592","MEAN_MOTION":"15.06407964","RA_OF_ASC_NODE":"201.1563","TLE_LINE2":"2 45061  53.0537 201.1563 0001479  70.6688 289.4460 15.06407964 97590","OBJECT_TYPE":"PAYLOAD","ECCENTRICITY":"0.00014790","EPOCH":"2021-11-05T20:53:59.000928","ELEMENT_SET_NO":"999","MEAN_MOTION_DDOT":"0.0000000000000","REF_FRAME":"TEME","MEAN_MOTION_DOT":"0.00000492","EPHEMERIS_TYPE":"0"}];
